     3.02           N: GNSS NAV DATA    G: GPS              RINEX VERSION / TYPE
GR10 V3.11          Instituto Geografico20181013 235942 UTC PGM / RUN BY / DATE
GPSA   1.1176D-08  0.0000D+00 -5.9605D-08  0.0000D+00       IONOSPHERIC CORR
GPSB   9.0112D+04  0.0000D+00 -1.9661D+05  0.0000D+00       IONOSPHERIC CORR
GPUT  4.6566128731D-09 1.243449788D-14 233472 2023          TIME SYSTEM CORR
    18    18  1929     7                                    LEAP SECONDS
                                                            END OF HEADER
G22 2018 10 14 10 00 00-5.464269779623D-04-1.045918907039D-11 0.000000000000D+00
     5.500000000000D+01-4.125000000000D+00 5.532016144963D-09 1.880960702569D+00
    -4.172325134277D-07 7.019778713584D-03 6.463378667831D-06 5.153683448792D+03
     3.600000000000D+04 1.303851604462D-07 2.009025654268D+00-1.229345798492D-07
     9.256699420058D-01 2.324687500000D+02-1.474293254803D+00-8.399278435089D-09
     9.714690370133D-11 1.000000000000D+00 2.023000000000D+03 0.000000000000D+00
     2.000000000000D+00 0.000000000000D+00-1.816079020500D-08 5.500000000000D+01
     2.949000000000D+04                   
G11 2018 10 14 09 59 44-7.099900394678D-04 3.410605131648D-12 0.000000000000D+00
     7.000000000000D+00-6.565625000000D+01 5.898459980248D-09-2.063598547791D-01
    -3.373250365257D-06 1.692705135792D-02 7.841736078262D-06 5.153661113739D+03
     3.598400000000D+04-2.328306436539D-07 5.945223236469D-01-8.009374141693D-08
     9.070588181606D-01 2.022187500000D+02 1.829301428376D+00-8.963944812853D-09
     1.117903708034D-10 1.000000000000D+00 2.023000000000D+03 0.000000000000D+00
     2.000000000000D+00 0.000000000000D+00-1.210719347000D-08 7.000000000000D+00
     3.069000000000D+04                   
G28 2018 10 14 10 00 00 7.496629841626D-04 1.932676241267D-12 0.000000000000D+00
     6.000000000000D+01 2.671875000000D+01 4.051597336720D-09-2.740675496455D+00
     1.382082700729D-06 1.962127629668D-02 3.334134817123D-06 5.153694267273D+03
     3.600000000000D+04 2.402812242508D-07-9.804468028819D-01 2.160668373108D-07
     9.844149915786D-01 3.219687500000D+02-1.508641772551D+00-7.741036730966D-09
     1.800074980348D-10 1.000000000000D+00 2.023000000000D+03 0.000000000000D+00
     2.800000000000D+00 0.000000000000D+00-1.117587089539D-08 6.000000000000D+01
     3.114000000000D+04                   
G03 2018 10 14 10 00 00 1.487317495048D-04 4.547473508865D-12 0.000000000000D+00
     7.100000000000D+01-2.750000000000D+00 4.729839873959D-09-6.437366155396D-01
    -2.663582563400D-07 1.797202741727D-03 6.794929504395D-06 5.153655897141D+03
     3.600000000000D+04 1.862645149231D-08 2.073776968563D+00 3.725290298462D-09
     9.614758245959D-01 2.484062500000D+02 6.794979756810D-01-8.099265938365D-09
     6.964575816824D-11 1.000000000000D+00 2.023000000000D+03 0.000000000000D+00
     2.000000000000D+00 0.000000000000D+00 2.328306436539D-09 7.100000000000D+01
     3.276000000000D+04                   
G28 2018 10 14 12 00 00 7.496769540012D-04 1.932676241267D-12 0.000000000000D+00
     6.100000000000D+01 3.862500000000D+01 4.064812172886D-09-1.690593915885D+00
     2.538785338402D-06 1.962229656056D-02 3.982335329056D-06 5.153690671921D+03
     4.320000000000D+04 9.499490261078D-08-9.805024171756D-01 4.842877388000D-07
     9.844154626382D-01 3.140625000000D+02-1.508557912235D+00-7.928901699153D-09
     1.307197307158D-10 1.000000000000D+00 2.023000000000D+03 0.000000000000D+00
     4.000000000000D+00 0.000000000000D+00-1.117587089539D-08 6.100000000000D+01
     3.600000000000D+04                   
G22 2018 10 14 12 00 00-5.465019494295D-04-1.045918907039D-11 0.000000000000D+00
     8.300000000000D+01-2.593750000000D+00 5.556302870888D-09 2.931128371479D+00
    -1.341104507446D-07 7.019429584034D-03 6.617978215218D-06 5.153684066772D+03
     4.320000000000D+04 1.713633537292D-07 2.008965358637D+00-1.490116119385D-08
     9.256706749277D-01 2.295312500000D+02-1.474278593438D+00-8.374634551430D-09
     1.164334213479D-10 1.000000000000D+00 2.023000000000D+03 0.000000000000D+00
     2.000000000000D+00 0.000000000000D+00-1.816079020500D-08 8.300000000000D+01
     3.600000000000D+04                   
G10 2018 10 14 12 00 00 1.746811904013D-04-3.296918293927D-12 0.000000000000D+00
     9.000000000000D+01-7.406250000000D+00 4.765912805113D-09-4.662015236676D-01
    -5.811452865601D-07 3.878302755766D-03 6.994232535362D-06 5.153657886505D+03
     4.320000000000D+04 9.313225746155D-08 2.070349342726D+00 7.264316082001D-08
     9.615394834762D-01 2.463750000000D+02-2.815380825741D+00-8.121409717885D-09
     1.821504444400D-11 1.000000000000D+00 2.023000000000D+03 0.000000000000D+00
     2.000000000000D+00 0.000000000000D+00 1.862645149231D-09 9.000000000000D+01
     3.600000000000D+04                   
G18 2018 10 14 12 00 00 6.812345236540D-05 4.206412995700D-12 0.000000000000D+00
     6.000000000000D+01-6.100000000000D+01 4.728768400756D-09 1.276236548535D+00
    -3.274530172348D-06 1.497228932567D-02 9.341165423393D-06 5.153629951477D+03
     4.320000000000D+04-3.241002559662D-07 9.803752910574D-01-1.676380634308D-07
     9.511618161875D-01 1.981875000000D+02 1.357308963972D+00-8.229628511346D-09
     2.167947446570D-10 1.000000000000D+00 2.023000000000D+03 0.000000000000D+00
     2.000000000000D+00 0.000000000000D+00-6.519258022308D-09 6.000000000000D+01
     3.600000000000D+04                   
G08 2018 10 14 12 00 00-1.185629516840D-04-1.364242052659D-12 0.000000000000D+00
     6.400000000000D+01-6.759375000000D+01 4.460542942375D-09-2.204694961617D+00
    -3.440305590630D-06 3.623243770562D-03 5.541369318962D-06 5.153639492035D+03
     4.320000000000D+04-1.043081283569D-07-3.456135623636D-02-1.303851604462D-08
     9.700851326025D-01 2.807187500000D+02-4.120951839785D-01-8.136053184987D-09
    -4.964492505326D-11 1.000000000000D+00 2.023000000000D+03 0.000000000000D+00
     2.000000000000D+00 0.000000000000D+00 5.122274160385D-09 6.400000000000D+01
     3.600000000000D+04                   
G14 2018 10 14 12 00 00-9.671971201897D-05 2.273736754432D-13 0.000000000000D+00
     1.500000000000D+01 6.562500000000D+00 4.364824669610D-09-2.856668761229D+00
     4.321336746216D-07 1.001891330816D-02 8.724629878998D-06 5.153634798050D+03
     4.320000000000D+04 9.872019290924D-08-3.085581833017D+00-5.401670932770D-08
     9.612166862132D-01 2.099062500000D+02-1.943022823797D+00-7.692106121381D-09
    -3.128701751558D-10 1.000000000000D+00 2.023000000000D+03 0.000000000000D+00
     2.000000000000D+00 0.000000000000D+00-9.778887033463D-09 1.500000000000D+01
     3.600000000000D+04                   
G11 2018 10 14 11 59 44-7.099648937583D-04 3.410605131648D-12 0.000000000000D+00
     8.000000000000D+00-8.178125000000D+01 5.857743998550D-09 8.437712879924D-01
    -4.412606358528D-06 1.692883961368D-02 7.877126336098D-06 5.153665079117D+03
     4.318400000000D+04-1.769512891769D-07 5.944577167957D-01-2.868473529816D-07
     9.070595364534D-01 2.034062500000D+02 1.829368283732D+00-8.903227998040D-09
     9.143237995420D-11 1.000000000000D+00 2.023000000000D+03 0.000000000000D+00
     2.000000000000D+00 0.000000000000D+00-1.210719347000D-08 8.000000000000D+00
     3.600000000000D+04                   
G27 2018 10 14 12 00 00-5.092471837997D-06-4.433786671143D-12 0.000000000000D+00
     8.000000000000D+01-7.353125000000D+01 4.235890727566D-09-2.586753280451D+00
    -3.907829523087D-06 6.079492275603D-03 5.673617124557D-06 5.153696887970D+03
     4.320000000000D+04-5.401670932770D-08-2.499219695675D-02-1.098960638046D-07
     9.783164532986D-01 2.808437500000D+02 4.472313338945D-01-7.979975255143D-09
    -5.643092200298D-11 1.000000000000D+00 2.023000000000D+03 0.000000000000D+00
     2.000000000000D+00 0.000000000000D+00 1.862645149231D-09 8.000000000000D+01
     3.600000000000D+04                   
G03 2018 10 14 12 00 00 1.487648114562D-04 4.547473508865D-12 0.000000000000D+00
     7.200000000000D+01-5.312500000000D+00 4.787699426899D-09 4.063651225785D-01
    -2.589076757431D-07 1.796713564545D-03 6.850808858871D-06 5.153654941559D+03
     4.320000000000D+04 2.421438694000D-08 2.073718630316D+00 1.862645149231D-09
     9.614763205252D-01 2.454062500000D+02 6.795902097400D-01-8.102123200238D-09
     7.250302004181D-11 1.000000000000D+00 2.023000000000D+03 0.000000000000D+00
     2.000000000000D+00 0.000000000000D+00 2.328306436539D-09 7.200000000000D+01
     3.600000000000D+04                   
G01 2018 10 14 12 00 00-1.003332436085D-04-5.002220859751D-12 0.000000000000D+00
     1.010000000000D+02-5.175000000000D+01 4.274463762859D-09 1.495998336278D+00
    -2.562999725342D-06 8.121718419716D-03 9.505078196526D-06 5.153667970657D+03
     4.320000000000D+04-1.452863216400D-07 1.030602511817D+00 1.545995473862D-07
     9.726901230308D-01 2.040000000000D+02 6.994341405023D-01-7.914972547519D-09
     1.925080187317D-10 1.000000000000D+00 2.023000000000D+03 0.000000000000D+00
     2.800000000000D+00 0.000000000000D+00 5.587935447693D-09 1.010000000000D+02
     3.600000000000D+04                   
G32 2018 10 14 12 00 00-3.932416439056D-04 1.261923898710D-11 0.000000000000D+00
     9.700000000000D+01 1.906250000000D+00 4.555546899671D-09-1.835200486072D+00
     2.086162567139D-07 2.300487947650D-03 8.571892976761D-06 5.153711071014D+03
     4.320000000000D+04-2.421438694000D-08 3.112323425449D+00-7.264316082001D-08
     9.573571118693D-01 2.154687500000D+02-2.572584436091D+00-7.894971714404D-09
    -3.375140588153D-10 1.000000000000D+00 2.023000000000D+03 0.000000000000D+00
     2.800000000000D+00 0.000000000000D+00 4.656612873077D-10 9.700000000000D+01
     3.600000000000D+04                   
